SHIYAN 15 (SY-15)       
1 53885U 22118B   23329.09658431  .00014288  00000+0  46341-3 0  9991
2 53885  97.5026 343.6686 0009778 195.8525 164.2412 15.32042972 65042
STARLINK-5028           
1 53886U 22119A   23328.68911091 -.00000071  00000+0  13645-4 0  9999
2 53886  53.2183 117.3086 0001614  72.2325 287.8844 15.08839092 65471
STARLINK-5029           
1 53887U 22119B   23328.74428984  .00001242  00000+0  96123-4 0  9993
2 53887  53.2179 116.9394 0001445  79.7304 280.3851 15.08847717 65485
STARLINK-5034           
1 53888U 22119C   23328.68542008 -.00000115  00000+0  10869-4 0  9993
2 53888  53.2194 117.2835 0001576  80.2582 279.8588 15.08852556 65473
STARLINK-5031           
1 53889U 22119D   23328.68174106  .00000369  00000+0  41308-4 0  9996
2 53889  53.2177 117.2597 0001513  78.2284 281.8878 15.08839675 65479
STARLINK-5050           
1 53890U 22119E   23328.84131697  .00021191  00000+0  13446-2 0  9990
2 53890  53.2160  81.1722 0001479  69.0170 291.0980 15.08865225 65573
STARLINK-5041           
1 53891U 22119F   23328.80684451  .00002050  00000+0  14681-3 0  9994
2 53891  53.2174 116.6203 0001373  83.9571 276.1578 15.08846617 65492
STARLINK-5046           
1 53892U 22119G   23328.65594604 -.00000717  00000+0 -26946-4 0  9996
2 53892  53.2163 117.0988 0001139  83.8832 276.2289 15.08847940 65473
STARLINK-5052           
1 53893U 22119H   23328.73419781 -.00000161  00000+0  80097-5 0  9998
2 53893  53.2178 116.8745 0001532 103.1217 256.9946 15.08843561 65489
STARLINK-5043           
1 53894U 22119J   23328.73692437  .00000970  00000+0  79041-4 0  9993
2 53894  53.2178 116.8928 0001426  96.1438 263.9717 15.08840012 65483
STARLINK-5032           
1 53895U 22119K   23328.79210880  .00000223  00000+0  32096-4 0  9998
2 53895  53.2180 116.5263 0001386  96.3171 263.7979 15.08840262 65493
STARLINK-5037           
1 53896U 22119L   23328.78475079 -.00001800  00000+0 -95088-4 0  9995
2 53896  53.2174 116.4811 0001204  98.1905 261.9224 15.08828594 65496
STARLINK-5035           
1 53897U 22119M   23328.73326156  .00000399  00000+0  43174-4 0  9991
2 53897  53.2184 116.8714 0001472  74.3620 285.7535 15.08824606 65063
STARLINK-5044           
1 53898U 22119N   23328.77368617  .00000602  00000+0  55915-4 0  9997
2 53898  53.2179 116.4104 0001475 102.9094 257.2063 15.08838267 65498
STARLINK-5042           
1 53899U 22119P   23328.64488908  .00001984  00000+0  14271-3 0  9993
2 53899  53.2164 117.0252 0001348  93.3613 266.7533 15.08842199 65051
STARLINK-5045           
1 53900U 22119Q   23329.03127649  .00001185  00000+0  92557-4 0  9999
2 53900  53.2191 115.1731 0001331  81.7378 278.3765 15.08839825 65111
STARLINK-5024           
1 53901U 22119R   23328.71481805  .00003256  00000+0  22261-3 0  9996
2 53901  53.2160 116.7536 0001407 101.0355 259.0796 15.08833639 65480
