[{"OBJECT_NAME":"SHIYAN 15 (SY-15)","OBJECT_ID":"2022-118B","EPOCH":"2023-11-25T02:19:04.884384","MEAN_MOTION":15.32042972,"ECCENTRICITY":0.0009778,"INCLINATION":97.5026,"RA_OF_ASC_NODE":343.6686,"ARG_OF_PERICENTER":195.8525,"MEAN_ANOMALY":164.2412,"EPHEMERIS_TYPE":0,"CLASSIFICATION_TYPE":"U","NORAD_CAT_ID":53885,"ELEMENT_SET_NO":999,"REV_AT_EPOCH":6504,"BSTAR":0.00046341,"MEAN_MOTION_DOT":0.00014288,"MEAN_MOTION_DDOT":0},{"OBJECT_NAME":"STARLINK-5028","OBJECT_ID":"2022-119A","EPOCH":"2023-11-24T16:32:19.182624","MEAN_MOTION":15.08839092,"ECCENTRICITY":0.0001614,"INCLINATION":53.2183,"RA_OF_ASC_NODE":117.3086,"ARG_OF_PERICENTER":72.2325,"MEAN_ANOMALY":287.8844,"EPHEMERIS_TYPE":0,"CLASSIFICATION_TYPE":"U","NORAD_CAT_ID":53886,"ELEMENT_SET_NO":999,"REV_AT_EPOCH":6547,"BSTAR":1.3645e-5,"MEAN_MOTION_DOT":-7.1e-7,"MEAN_MOTION_DDOT":0},{"OBJECT_NAME":"STARLINK-5029","OBJECT_ID":"2022-119B","EPOCH":"2023-11-24T17:51:46.642176","MEAN_MOTION":15.08847717,"ECCENTRICITY":0.0001445,"INCLINATION":53.2179,"RA_OF_ASC_NODE":116.9394,"ARG_OF_PERICENTER":79.7304,"MEAN_ANOMALY":280.3851,"EPHEMERIS_TYPE":0,"CLASSIFICATION_TYPE":"U","NORAD_CAT_ID":53887,"ELEMENT_SET_NO":999,"REV_AT_EPOCH":6548,"BSTAR":9.6123e-5,"MEAN_MOTION_DOT":1.242e-5,"MEAN_MOTION_DDOT":0},{"OBJECT_NAME":"STARLINK-5034","OBJECT_ID":"2022-119C","EPOCH":"2023-11-24T16:27:00.294912","MEAN_MOTION":15.08852556,"ECCENTRICITY":0.0001576,"INCLINATION":53.2194,"RA_OF_ASC_NODE":117.2835,"ARG_OF_PERICENTER":80.2582,"MEAN_ANOMALY":279.8588,"EPHEMERIS_TYPE":0,"CLASSIFICATION_TYPE":"U","NORAD_CAT_ID":53888,"ELEMENT_SET_NO":999,"REV_AT_EPOCH":6547,"BSTAR":1.0869e-5,"MEAN_MOTION_DOT":-1.15e-6,"MEAN_MOTION_DDOT":0},{"OBJECT_NAME":"STARLINK-5031","OBJECT_ID":"2022-119D","EPOCH":"2023-11-24T16:21:42.427584","MEAN_MOTION":15.08839675,"ECCENTRICITY":0.0001513,"INCLINATION":53.2177,"RA_OF_ASC_NODE":117.2597,"ARG_OF_PERICENTER":78.2284,"MEAN_ANOMALY":281.8878,"EPHEMERIS_TYPE":0,"CLASSIFICATION_TYPE":"U","NORAD_CAT_ID":53889,"ELEMENT_SET_NO":999,"REV_AT_EPOCH":6547,"BSTAR":4.1308e-5,"MEAN_MOTION_DOT":3.69e-6,"MEAN_MOTION_DDOT":0},{"OBJECT_NAME":"STARLINK-5050","OBJECT_ID":"2022-119E","EPOCH":"2023-11-24T20:11:29.786208","MEAN_MOTION":15.08865225,"ECCENTRICITY":0.0001479,"INCLINATION":53.216,"RA_OF_ASC_NODE":81.1722,"ARG_OF_PERICENTER":69.017,"MEAN_ANOMALY":291.098,"EPHEMERIS_TYPE":0,"CLASSIFICATION_TYPE":"U","NORAD_CAT_ID":53890,"ELEMENT_SET_NO":999,"REV_AT_EPOCH":6557,"BSTAR":0.0013446,"MEAN_MOTION_DOT":0.00021191,"MEAN_MOTION_DDOT":0},{"OBJECT_NAME":"STARLINK-5041","OBJECT_ID":"2022-119F","EPOCH":"2023-11-24T19:21:51.365664","MEAN_MOTION":15.08846617,"ECCENTRICITY":0.0001373,"INCLINATION":53.2174,"RA_OF_ASC_NODE":116.6203,"ARG_OF_PERICENTER":83.9571,"MEAN_ANOMALY":276.1578,"EPHEMERIS_TYPE":0,"CLASSIFICATION_TYPE":"U","NORAD_CAT_ID":53891,"ELEMENT_SET_NO":999,"REV_AT_EPOCH":6549,"BSTAR":0.00014681,"MEAN_MOTION_DOT":2.05e-5,"MEAN_MOTION_DDOT":0},{"OBJECT_NAME":"STARLINK-5046","OBJECT_ID":"2022-119G","EPOCH":"2023-11-24T15:44:33.737856","MEAN_MOTION":15.0884794,"ECCENTRICITY":0.0001139,"INCLINATION":53.2163,"RA_OF_ASC_NODE":117.0988,"ARG_OF_PERICENTER":83.8832,"MEAN_ANOMALY":276.2289,"EPHEMERIS_TYPE":0,"CLASSIFICATION_TYPE":"U","NORAD_CAT_ID":53892,"ELEMENT_SET_NO":999,"REV_AT_EPOCH":6547,"BSTAR":-2.6946e-5,"MEAN_MOTION_DOT":-7.17e-6,"MEAN_MOTION_DDOT":0},{"OBJECT_NAME":"STARLINK-5052","OBJECT_ID":"2022-119H","EPOCH":"2023-11-24T17:37:14.690784","MEAN_MOTION":15.08843561,"ECCENTRICITY":0.0001532,"INCLINATION":53.2178,"RA_OF_ASC_NODE":116.8745,"ARG_OF_PERICENTER":103.1217,"MEAN_ANOMALY":256.9946,"EPHEMERIS_TYPE":0,"CLASSIFICATION_TYPE":"U","NORAD_CAT_ID":53893,"ELEMENT_SET_NO":999,"REV_AT_EPOCH":6548,"BSTAR":8.0097e-6,"MEAN_MOTION_DOT":-1.61e-6,"MEAN_MOTION_DDOT":0},{"OBJECT_NAME":"STARLINK-5043","OBJECT_ID":"2022-119J","EPOCH":"2023-11-24T17:41:10.265568","MEAN_MOTION":15.08840012,"ECCENTRICITY":0.0001426,"INCLINATION":53.2178,"RA_OF_ASC_NODE":116.8928,"ARG_OF_PERICENTER":96.1438,"MEAN_ANOMALY":263.9717,"EPHEMERIS_TYPE":0,"CLASSIFICATION_TYPE":"U","NORAD_CAT_ID":53894,"ELEMENT_SET_NO":999,"REV_AT_EPOCH":6548,"BSTAR":7.9041e-5,"MEAN_MOTION_DOT":9.7e-6,"MEAN_MOTION_DDOT":0},{"OBJECT_NAME":"STARLINK-5032","OBJECT_ID":"2022-119K","EPOCH":"2023-11-24T19:00:38.200320","MEAN_MOTION":15.08840262,"ECCENTRICITY":0.0001386,"INCLINATION":53.218,"RA_OF_ASC_NODE":116.5263,"ARG_OF_PERICENTER":96.3171,"MEAN_ANOMALY":263.7979,"EPHEMERIS_TYPE":0,"CLASSIFICATION_TYPE":"U","NORAD_CAT_ID":53895,"ELEMENT_SET_NO":999,"REV_AT_EPOCH":6549,"BSTAR":3.2096e-5,"MEAN_MOTION_DOT":2.23e-6,"MEAN_MOTION_DDOT":0},{"OBJECT_NAME":"STARLINK-5037","OBJECT_ID":"2022-119L","EPOCH":"2023-11-24T18:50:02.468256","MEAN_MOTION":15.08828594,"ECCENTRICITY":0.0001204,"INCLINATION":53.2174,"RA_OF_ASC_NODE":116.4811,"ARG_OF_PERICENTER":98.1905,"MEAN_ANOMALY":261.9224,"EPHEMERIS_TYPE":0,"CLASSIFICATION_TYPE":"U","NORAD_CAT_ID":53896,"ELEMENT_SET_NO":999,"REV_AT_EPOCH":6549,"BSTAR":-9.5088e-5,"MEAN_MOTION_DOT":-1.8e-5,"MEAN_MOTION_DDOT":0},{"OBJECT_NAME":"STARLINK-5035","OBJECT_ID":"2022-119M","EPOCH":"2023-11-24T17:35:53.798784","MEAN_MOTION":15.08824606,"ECCENTRICITY":0.0001472,"INCLINATION":53.2184,"RA_OF_ASC_NODE":116.8714,"ARG_OF_PERICENTER":74.362,"MEAN_ANOMALY":285.7535,"EPHEMERIS_TYPE":0,"CLASSIFICATION_TYPE":"U","NORAD_CAT_ID":53897,"ELEMENT_SET_NO":999,"REV_AT_EPOCH":6506,"BSTAR":4.3174e-5,"MEAN_MOTION_DOT":3.99e-6,"MEAN_MOTION_DDOT":0},{"OBJECT_NAME":"STARLINK-5044","OBJECT_ID":"2022-119N","EPOCH":"2023-11-24T18:34:06.485088","MEAN_MOTION":15.08838267,"ECCENTRICITY":0.0001475,"INCLINATION":53.2179,"RA_OF_ASC_NODE":116.4104,"ARG_OF_PERICENTER":102.9094,"MEAN_ANOMALY":257.2063,"EPHEMERIS_TYPE":0,"CLASSIFICATION_TYPE":"U","NORAD_CAT_ID":53898,"ELEMENT_SET_NO":999,"REV_AT_EPOCH":6549,"BSTAR":5.5915e-5,"MEAN_MOTION_DOT":6.02e-6,"MEAN_MOTION_DDOT":0},{"OBJECT_NAME":"STARLINK-5042","OBJECT_ID":"2022-119P","EPOCH":"2023-11-24T15:28:38.416512","MEAN_MOTION":15.08842199,"ECCENTRICITY":0.0001348,"INCLINATION":53.2164,"RA_OF_ASC_NODE":117.0252,"ARG_OF_PERICENTER":93.3613,"MEAN_ANOMALY":266.7533,"EPHEMERIS_TYPE":0,"CLASSIFICATION_TYPE":"U","NORAD_CAT_ID":53899,"ELEMENT_SET_NO":999,"REV_AT_EPOCH":6505,"BSTAR":0.00014271,"MEAN_MOTION_DOT":1.984e-5,"MEAN_MOTION_DDOT":0},{"OBJECT_NAME":"STARLINK-5045","OBJECT_ID":"2022-119Q","EPOCH":"2023-11-25T00:45:02.288736","MEAN_MOTION":15.08839825,"ECCENTRICITY":0.0001331,"INCLINATION":53.2191,"RA_OF_ASC_NODE":115.1731,"ARG_OF_PERICENTER":81.7378,"MEAN_ANOMALY":278.3765,"EPHEMERIS_TYPE":0,"CLASSIFICATION_TYPE":"U","NORAD_CAT_ID":53900,"ELEMENT_SET_NO":999,"REV_AT_EPOCH":6511,"BSTAR":9.2557e-5,"MEAN_MOTION_DOT":1.185e-5,"MEAN_MOTION_DDOT":0},{"OBJECT_NAME":"STARLINK-5024","OBJECT_ID":"2022-119R","EPOCH":"2023-11-24T17:09:20.279520","MEAN_MOTION":15.08833639,"ECCENTRICITY":0.0001407,"INCLINATION":53.216,"RA_OF_ASC_NODE":116.7536,"ARG_OF_PERICENTER":101.0355,"MEAN_ANOMALY":259.0796,"EPHEMERIS_TYPE":0,"CLASSIFICATION_TYPE":"U","NORAD_CAT_ID":53901,"ELEMENT_SET_NO":999,"REV_AT_EPOCH":6548,"BSTAR":0.00022261,"MEAN_MOTION_DOT":3.256e-5,"MEAN_MOTION_DDOT":0}]
